{"type": "FeatureCollection", "features": [ {"type": "Feature", "properties": {"norad_id": 43566, "name": "GSAT0219 (GALILEO 23)", "group": "gnss", "lat": -47.83081847042048, "lon": -58.23621095113268, "alt_km": 23210.71686056709, "timestamp": "2025-12-02T21:34:01.514750+00:00", "meta": {"OBJECT_NAME": "GSAT0219 (GALILEO 23)", "OBJECT_ID": "2018-060C", "EPOCH": "2025-11-30T01:35:38.037408", "MEAN_MOTION": 1.70475682, "ECCENTRICITY": 0.00057799, "INCLINATION": 57.2334, "RA_OF_ASC_NODE": 347.165, "ARG_OF_PERICENTER": 285.7575, "MEAN_ANOMALY": 74.2225, "EPHEMERIS_TYPE": 0, "CLASSIFICATION_TYPE": "U", "NORAD_CAT_ID": 43566, "ELEMENT_SET_NO": 999, "REV_AT_EPOCH": 4579, "BSTAR": 0, "MEAN_MOTION_DOT": -5.6e-07, "MEAN_MOTION_DDOT": 0}, "tle": {"line1": "1 43566U 18060C   25334.06641247 -.00000056  00000+0  00000+0 0  9996", "line2": "2 43566  57.2334 347.1650 0005779 285.7575  74.2225  1.70475682 45790"}}, "geometry": {"type": "Point", "coordinates": [-58.23621095113268, -47.83081847042048]}}, {"type": "Feature", "properties": {"norad_id": 43567, "name": "GSAT0220 (GALILEO 24)", "group": "gnss", "lat": 14.615916799523271, "lon": 157.42584993754588, "alt_km": 23229.03647192513, "timestamp": "2025-12-02T21:34:01.514765+00:00", "meta": {"OBJECT_NAME": "GSAT0220 (GALILEO 24)", "OBJECT_ID": "2018-060D", "EPOCH": "2025-11-30T20:58:25.885344", "MEAN_MOTION": 1.70475446, "ECCENTRICITY": 0.00061088, "INCLINATION": 57.233, "RA_OF_ASC_NODE": 347.1438, "ARG_OF_PERICENTER": 281.1334, "MEAN_ANOMALY": 78.841, "EPHEMERIS_TYPE": 0, "CLASSIFICATION_TYPE": "U", "NORAD_CAT_ID": 43567, "ELEMENT_SET_NO": 999, "REV_AT_EPOCH": 4579, "BSTAR": 0, "MEAN_MOTION_DOT": -5.8e-07, "MEAN_MOTION_DDOT": 0}, "tle": {"line1": "1 43567U 18060D   25334.87391071 -.00000058  00000+0  00000+0 0  9995", "line2": "2 43567  57.2330 347.1438 0006108 281.1334  78.8410  1.70475446 45795"}}, "geometry": {"type": "Point", "coordinates": [157.42584993754588, 14.615916799523271]}}, {"type": "Feature", "properties": {"norad_id": 43581, "name": "BEIDOU-3 M5 (C23)", "group": "gnss", "lat": -25.954951372551353, "lon": 29.64016415353101, "alt_km": 21536.021918644597, "timestamp": "2025-12-02T21:34:01.514776+00:00", "meta": {"OBJECT_NAME": "BEIDOU-3 M5 (C23)", "OBJECT_ID": "2018-062A", "EPOCH": "2025-11-30T23:17:32.661024", "MEAN_MOTION": 1.8622853, "ECCENTRICITY": 0.0002124, "INCLINATION": 54.0891, "RA_OF_ASC_NODE": 189.0442, "ARG_OF_PERICENTER": 349.7703, "MEAN_ANOMALY": 10.3183, "EPHEMERIS_TYPE": 0, "CLASSIFICATION_TYPE": "U", "NORAD_CAT_ID": 43581, "ELEMENT_SET_NO": 999, "REV_AT_EPOCH": 4994, "BSTAR": 0, "MEAN_MOTION_DOT": 1.17e-06, "MEAN_MOTION_DDOT": 0}, "tle": {"line1": "1 43581U 18062A   25334.97051691  .00000117  00000+0  00000+0 0  9990", "line2": "2 43581  54.0891 189.0442 0002124 349.7703  10.3183  1.86228530 49947"}}, "geometry": {"type": "Point", "coordinates": [29.64016415353101, -25.954951372551353]}}, {"type": "Feature", "properties": {"norad_id": 43582, "name": "BEIDOU-3 M6 (C24)", "group": "gnss", "lat": -41.896515240546435, "lon": 148.43019700850425, "alt_km": 21537.16962657276, "timestamp": "2025-12-02T21:34:01.514790+00:00", "meta": {"OBJECT_NAME": "BEIDOU-3 M6 (C24)", "OBJECT_ID": "2018-062B", "EPOCH": "2025-11-29T18:14:01.707936", "MEAN_MOTION": 1.86229617, "ECCENTRICITY": 0.00076529, "INCLINATION": 54.0888, "RA_OF_ASC_NODE": 189.0746, "ARG_OF_PERICENTER": 45.4041, "MEAN_ANOMALY": 314.7474, "EPHEMERIS_TYPE": 0, "CLASSIFICATION_TYPE": "U", "NORAD_CAT_ID": 43582, "ELEMENT_SET_NO": 999, "REV_AT_EPOCH": 4992, "BSTAR": 0, "MEAN_MOTION_DOT": 1.07e-06, "MEAN_MOTION_DDOT": 0}, "tle": {"line1": "1 43582U 18062B   25333.75974199  .00000107  00000+0  00000+0 0  9992", "line2": "2 43582  54.0888 189.0746 0007652  45.4041 314.7474  1.86229617 49926"}}, "geometry": {"type": "Point", "coordinates": [148.43019700850425, -41.896515240546435]}}, {"type": "Feature", "properties": {"norad_id": 43602, "name": "BEIDOU-3 M12 (C26)", "group": "gnss", "lat": -11.154721943722286, "lon": 179.5197092543271, "alt_km": 21515.13281133846, "timestamp": "2025-12-02T21:34:01.514811+00:00", "meta": {"OBJECT_NAME": "BEIDOU-3 M12 (C26)", "OBJECT_ID": "2018-067A", "EPOCH": "2025-12-01T20:17:11.919840", "MEAN_MOTION": 1.86227624, "ECCENTRICITY": 0.00091432, "INCLINATION": 54.1831, "RA_OF_ASC_NODE": 187.7331, "ARG_OF_PERICENTER": 40.4315, "MEAN_ANOMALY": 319.7307, "EPHEMERIS_TYPE": 0, "CLASSIFICATION_TYPE": "U", "NORAD_CAT_ID": 43602, "ELEMENT_SET_NO": 999, "REV_AT_EPOCH": 4944, "BSTAR": 0, "MEAN_MOTION_DOT": 1.22e-06, "MEAN_MOTION_DDOT": 0}, "tle": {"line1": "1 43602U 18067A   25335.84527685  .00000122  00000+0  00000+0 0  9993", "line2": "2 43602  54.1831 187.7331 0009143  40.4315 319.7307  1.86227624 49442"}}, "geometry": {"type": "Point", "coordinates": [179.5197092543271, -11.154721943722286]}}, {"type": "Feature", "properties": {"norad_id": 43603, "name": "BEIDOU-3 M11 (C25)", "group": "gnss", "lat": -51.893809066643065, "lon": 74.71898877559701, "alt_km": 21545.99998424659, "timestamp": "2025-12-02T21:34:01.514826+00:00", "meta": {"OBJECT_NAME": "BEIDOU-3 M11 (C25)", "OBJECT_ID": "2018-067B", "EPOCH": "2025-12-01T23:30:51.046272", "MEAN_MOTION": 1.86227122, "ECCENTRICITY": 0.0005564, "INCLINATION": 54.1806, "RA_OF_ASC_NODE": 187.6926, "ARG_OF_PERICENTER": 35.9792, "MEAN_ANOMALY": 324.1526, "EPHEMERIS_TYPE": 0, "CLASSIFICATION_TYPE": "U", "NORAD_CAT_ID": 43603, "ELEMENT_SET_NO": 999, "REV_AT_EPOCH": 4947, "BSTAR": 0, "MEAN_MOTION_DOT": 1.23e-06, "MEAN_MOTION_DDOT": 0}, "tle": {"line1": "1 43603U 18067B   25335.97975748  .00000123  00000+0  00000+0 0  9996", "line2": "2 43603  54.1806 187.6926 0005564  35.9792 324.1526  1.86227122 49474"}}, "geometry": {"type": "Point", "coordinates": [74.71898877559701, -51.893809066643065]}}, {"type": "Feature", "properties": {"norad_id": 43622, "name": "BEIDOU-3 M13 (C32)", "group": "gnss", "lat": -53.576094457962284, "lon": 5.261634772819675, "alt_km": 21518.76080447478, "timestamp": "2025-12-02T21:34:01.514837+00:00", "meta": {"OBJECT_NAME": "BEIDOU-3 M13 (C32)", "OBJECT_ID": "2018-072A", "EPOCH": "2025-12-01T22:28:14.583360", "MEAN_MOTION": 1.8623073, "ECCENTRICITY": 0.00055911, "INCLINATION": 56.4497, "RA_OF_ASC_NODE": 69.1783, "ARG_OF_PERICENTER": 298.7186, "MEAN_ANOMALY": 61.2282, "EPHEMERIS_TYPE": 0, "CLASSIFICATION_TYPE": "U", "NORAD_CAT_ID": 43622, "ELEMENT_SET_NO": 999, "REV_AT_EPOCH": 4898, "BSTAR": 0, "MEAN_MOTION_DOT": -4.4e-07, "MEAN_MOTION_DDOT": 0}, "tle": {"line1": "1 43622U 18072A   25335.93627990 -.00000044  00000+0  00000+0 0  9995", "line2": "2 43622  56.4497  69.1783 0005591 298.7186  61.2282  1.86230730 48989"}}, "geometry": {"type": "Point", "coordinates": [5.261634772819675, -53.576094457962284]}}, {"type": "Feature", "properties": {"norad_id": 43623, "name": "BEIDOU-3 M14 (C33)", "group": "gnss", "lat": 12.797721413116264, "lon": 77.79566978266162, "alt_km": 21520.13436083921, "timestamp": "2025-12-02T21:34:01.514848+00:00", "meta": {"OBJECT_NAME": "BEIDOU-3 M14 (C33)", "OBJECT_ID": "2018-072B", "EPOCH": "2025-12-01T19:14:30.937344", "MEAN_MOTION": 1.86230707, "ECCENTRICITY": 0.0003049, "INCLINATION": 56.4513, "RA_OF_ASC_NODE": 69.1766, "ARG_OF_PERICENTER": 335.7773, "MEAN_ANOMALY": 24.2115, "EPHEMERIS_TYPE": 0, "CLASSIFICATION_TYPE": "U", "NORAD_CAT_ID": 43623, "ELEMENT_SET_NO": 999, "REV_AT_EPOCH": 4897, "BSTAR": 0, "MEAN_MOTION_DOT": -4.3e-07, "MEAN_MOTION_DDOT": 0}, "tle": {"line1": "1 43623U 18072B   25335.80174696 -.00000043  00000+0  00000+0 0  9991", "line2": "2 43623  56.4513  69.1766 0003049 335.7773  24.2115  1.86230707 48977"}}, "geometry": {"type": "Point", "coordinates": [77.79566978266162, 12.797721413116264]}}, {"type": "Feature", "properties": {"norad_id": 43647, "name": "BEIDOU-3 M16 (C35)", "group": "gnss", "lat": -54.26035787521772, "lon": -144.0758069857877, "alt_km": 21539.999540932295, "timestamp": "2025-12-02T21:34:01.514860+00:00", "meta": {"OBJECT_NAME": "BEIDOU-3 M16 (C35)", "OBJECT_ID": "2018-078A", "EPOCH": "2025-12-01T23:02:01.408992", "MEAN_MOTION": 1.86232129, "ECCENTRICITY": 0.00069466, "INCLINATION": 54.272, "RA_OF_ASC_NODE": 306.8982, "ARG_OF_PERICENTER": 18.3506, "MEAN_ANOMALY": 341.6639, "EPHEMERIS_TYPE": 0, "CLASSIFICATION_TYPE": "U", "NORAD_CAT_ID": 43647, "ELEMENT_SET_NO": 999, "REV_AT_EPOCH": 4848, "BSTAR": 0, "MEAN_MOTION_DOT": -6.1e-07, "MEAN_MOTION_DDOT": 0}, "tle": {"line1": "1 43647U 18078A   25335.95973853 -.00000061  00000+0  00000+0 0  9991", "line2": "2 43647  54.2720 306.8982 0006946  18.3506 341.6639  1.86232129 48480"}}, "geometry": {"type": "Point", "coordinates": [-144.0758069857877, -54.26035787521772]}}, {"type": "Feature", "properties": {"norad_id": 43648, "name": "BEIDOU-3 M15 (C34)", "group": "gnss", "lat": -2.376230286477531, "lon": 128.55738397423633, "alt_km": 21538.153272400403, "timestamp": "2025-12-02T21:34:01.514875+00:00", "meta": {"OBJECT_NAME": "BEIDOU-3 M15 (C34)", "OBJECT_ID": "2018-078B", "EPOCH": "2025-12-01T00:21:40.976640", "MEAN_MOTION": 1.86232, "ECCENTRICITY": 0.0003569, "INCLINATION": 54.2686, "RA_OF_ASC_NODE": 306.9322, "ARG_OF_PERICENTER": 17.0419, "MEAN_ANOMALY": 342.9634, "EPHEMERIS_TYPE": 0, "CLASSIFICATION_TYPE": "U", "NORAD_CAT_ID": 43648, "ELEMENT_SET_NO": 999, "REV_AT_EPOCH": 4848, "BSTAR": 0, "MEAN_MOTION_DOT": -5.6e-07, "MEAN_MOTION_DDOT": 0}, "tle": {"line1": "1 43648U 18078B   25335.01505760 -.00000056  00000+0  00000+0 0  9991", "line2": "2 43648  54.2686 306.9322 0003569  17.0419 342.9634  1.86232000 48485"}}, "geometry": {"type": "Point", "coordinates": [128.55738397423633, -2.376230286477531]}}]}